<?xml version="1.0" encoding="UTF-8"?>
<ndm xmlns:xsi="http://www.w3.org/2001/XMLSchema-instance" xsi:noNamespaceSchemaLocation="https://sanaregistry.org/r/ndmxml_unqualified/ndmxml-2.0.0-master-2.0.xsd">
<omm id="CCSDS_OMM_VERS" version="2.0">
<header><CREATION_DATE/><ORIGINATOR/></header><body><segment><metadata><OBJECT_NAME>ORBCOMM FM37 [-]</OBJECT_NAME><OBJECT_ID>2008-031E</OBJECT_ID><CENTER_NAME>EARTH</CENTER_NAME><REF_FRAME>TEME</REF_FRAME><TIME_SYSTEM>UTC</TIME_SYSTEM><MEAN_ELEMENT_THEORY>SGP4</MEAN_ELEMENT_THEORY></metadata><data><meanElements><EPOCH>2024-04-02T13:51:47.244096</EPOCH><MEAN_MOTION>14.76158198</MEAN_MOTION><ECCENTRICITY>.0006269</ECCENTRICITY><INCLINATION>48.4392</INCLINATION><RA_OF_ASC_NODE>272.4908</RA_OF_ASC_NODE><ARG_OF_PERICENTER>285.5499</ARG_OF_PERICENTER><MEAN_ANOMALY>183.5145</MEAN_ANOMALY></meanElements><tleParameters><EPHEMERIS_TYPE>0</EPHEMERIS_TYPE><CLASSIFICATION_TYPE>U</CLASSIFICATION_TYPE><NORAD_CAT_ID>33064</NORAD_CAT_ID><ELEMENT_SET_NO>999</ELEMENT_SET_NO><REV_AT_EPOCH>84919</REV_AT_EPOCH><BSTAR>.34516E-3</BSTAR><MEAN_MOTION_DOT>.2205E-4</MEAN_MOTION_DOT><MEAN_MOTION_DDOT>0</MEAN_MOTION_DDOT></tleParameters></data></segment></body></omm>
<omm id="CCSDS_OMM_VERS" version="2.0">
<header><CREATION_DATE/><ORIGINATOR/></header><body><segment><metadata><OBJECT_NAME>ORBCOMM FM40 [-]</OBJECT_NAME><OBJECT_ID>2008-031F</OBJECT_ID><CENTER_NAME>EARTH</CENTER_NAME><REF_FRAME>TEME</REF_FRAME><TIME_SYSTEM>UTC</TIME_SYSTEM><MEAN_ELEMENT_THEORY>SGP4</MEAN_ELEMENT_THEORY></metadata><data><meanElements><EPOCH>2024-04-02T21:15:50.883840</EPOCH><MEAN_MOTION>14.77440652</MEAN_MOTION><ECCENTRICITY>.0007557</ECCENTRICITY><INCLINATION>48.4413</INCLINATION><RA_OF_ASC_NODE>260.7624</RA_OF_ASC_NODE><ARG_OF_PERICENTER>295.3429</ARG_OF_PERICENTER><MEAN_ANOMALY>217.7606</MEAN_ANOMALY></meanElements><tleParameters><EPHEMERIS_TYPE>0</EPHEMERIS_TYPE><CLASSIFICATION_TYPE>U</CLASSIFICATION_TYPE><NORAD_CAT_ID>33065</NORAD_CAT_ID><ELEMENT_SET_NO>999</ELEMENT_SET_NO><REV_AT_EPOCH>84895</REV_AT_EPOCH><BSTAR>.40021E-3</BSTAR><MEAN_MOTION_DOT>.2673E-4</MEAN_MOTION_DOT><MEAN_MOTION_DDOT>0</MEAN_MOTION_DDOT></tleParameters></data></segment></body></omm>
<omm id="CCSDS_OMM_VERS" version="2.0">
<header><CREATION_DATE/><ORIGINATOR/></header><body><segment><metadata><OBJECT_NAME>VESSELSAT 1 [-]</OBJECT_NAME><OBJECT_ID>2011-058C</OBJECT_ID><CENTER_NAME>EARTH</CENTER_NAME><REF_FRAME>TEME</REF_FRAME><TIME_SYSTEM>UTC</TIME_SYSTEM><MEAN_ELEMENT_THEORY>SGP4</MEAN_ELEMENT_THEORY></metadata><data><meanElements><EPOCH>2024-04-02T17:47:33.564480</EPOCH><MEAN_MOTION>14.11132752</MEAN_MOTION><ECCENTRICITY>.0013788</ECCENTRICITY><INCLINATION>19.9615</INCLINATION><RA_OF_ASC_NODE>238.5716</RA_OF_ASC_NODE><ARG_OF_PERICENTER>22.8984</ARG_OF_PERICENTER><MEAN_ANOMALY>337.2034</MEAN_ANOMALY></meanElements><tleParameters><EPHEMERIS_TYPE>0</EPHEMERIS_TYPE><CLASSIFICATION_TYPE>U</CLASSIFICATION_TYPE><NORAD_CAT_ID>37840</NORAD_CAT_ID><ELEMENT_SET_NO>999</ELEMENT_SET_NO><REV_AT_EPOCH>64401</REV_AT_EPOCH><BSTAR>.85482E-4</BSTAR><MEAN_MOTION_DOT>.421E-5</MEAN_MOTION_DOT><MEAN_MOTION_DDOT>0</MEAN_MOTION_DDOT></tleParameters></data></segment></body></omm>
<omm id="CCSDS_OMM_VERS" version="2.0">
<header><CREATION_DATE/><ORIGINATOR/></header><body><segment><metadata><OBJECT_NAME>ORBCOMM FM109 [+]</OBJECT_NAME><OBJECT_ID>2014-040A</OBJECT_ID><CENTER_NAME>EARTH</CENTER_NAME><REF_FRAME>TEME</REF_FRAME><TIME_SYSTEM>UTC</TIME_SYSTEM><MEAN_ELEMENT_THEORY>SGP4</MEAN_ELEMENT_THEORY></metadata><data><meanElements><EPOCH>2024-04-02T21:58:34.278528</EPOCH><MEAN_MOTION>14.56441049</MEAN_MOTION><ECCENTRICITY>.0001377</ECCENTRICITY><INCLINATION>47.0038</INCLINATION><RA_OF_ASC_NODE>292.9725</RA_OF_ASC_NODE><ARG_OF_PERICENTER>104.1910</ARG_OF_PERICENTER><MEAN_ANOMALY>255.9128</MEAN_ANOMALY></meanElements><tleParameters><EPHEMERIS_TYPE>0</EPHEMERIS_TYPE><CLASSIFICATION_TYPE>U</CLASSIFICATION_TYPE><NORAD_CAT_ID>40086</NORAD_CAT_ID><ELEMENT_SET_NO>999</ELEMENT_SET_NO><REV_AT_EPOCH>51684</REV_AT_EPOCH><BSTAR>.22625E-3</BSTAR><MEAN_MOTION_DOT>.847E-5</MEAN_MOTION_DOT><MEAN_MOTION_DDOT>0</MEAN_MOTION_DDOT></tleParameters></data></segment></body></omm>
<omm id="CCSDS_OMM_VERS" version="2.0">
<header><CREATION_DATE/><ORIGINATOR/></header><body><segment><metadata><OBJECT_NAME>ORBCOMM FM107 [+]</OBJECT_NAME><OBJECT_ID>2014-040B</OBJECT_ID><CENTER_NAME>EARTH</CENTER_NAME><REF_FRAME>TEME</REF_FRAME><TIME_SYSTEM>UTC</TIME_SYSTEM><MEAN_ELEMENT_THEORY>SGP4</MEAN_ELEMENT_THEORY></metadata><data><meanElements><EPOCH>2024-04-02T16:12:58.725216</EPOCH><MEAN_MOTION>14.56444865</MEAN_MOTION><ECCENTRICITY>.0000853</ECCENTRICITY><INCLINATION>47.0051</INCLINATION><RA_OF_ASC_NODE>295.0648</RA_OF_ASC_NODE><ARG_OF_PERICENTER>47.8605</ARG_OF_PERICENTER><MEAN_ANOMALY>312.2352</MEAN_ANOMALY></meanElements><tleParameters><EPHEMERIS_TYPE>0</EPHEMERIS_TYPE><CLASSIFICATION_TYPE>U</CLASSIFICATION_TYPE><NORAD_CAT_ID>40087</NORAD_CAT_ID><ELEMENT_SET_NO>999</ELEMENT_SET_NO><REV_AT_EPOCH>51688</REV_AT_EPOCH><BSTAR>.24595E-3</BSTAR><MEAN_MOTION_DOT>.936E-5</MEAN_MOTION_DOT><MEAN_MOTION_DDOT>0</MEAN_MOTION_DDOT></tleParameters></data></segment></body></omm>
<omm id="CCSDS_OMM_VERS" version="2.0">
<header><CREATION_DATE/><ORIGINATOR/></header><body><segment><metadata><OBJECT_NAME>ORBCOMM FM106 [-]</OBJECT_NAME><OBJECT_ID>2014-040C</OBJECT_ID><CENTER_NAME>EARTH</CENTER_NAME><REF_FRAME>TEME</REF_FRAME><TIME_SYSTEM>UTC</TIME_SYSTEM><MEAN_ELEMENT_THEORY>SGP4</MEAN_ELEMENT_THEORY></metadata><data><meanElements><EPOCH>2024-04-02T20:49:19.378560</EPOCH><MEAN_MOTION>14.66817879</MEAN_MOTION><ECCENTRICITY>.0017901</ECCENTRICITY><INCLINATION>47.0591</INCLINATION><RA_OF_ASC_NODE>150.0695</RA_OF_ASC_NODE><ARG_OF_PERICENTER>187.3424</ARG_OF_PERICENTER><MEAN_ANOMALY>172.7206</MEAN_ANOMALY></meanElements><tleParameters><EPHEMERIS_TYPE>0</EPHEMERIS_TYPE><CLASSIFICATION_TYPE>U</CLASSIFICATION_TYPE><NORAD_CAT_ID>40088</NORAD_CAT_ID><ELEMENT_SET_NO>999</ELEMENT_SET_NO><REV_AT_EPOCH>51877</REV_AT_EPOCH><BSTAR>.24873E-3</BSTAR><MEAN_MOTION_DOT>.122E-4</MEAN_MOTION_DOT><MEAN_MOTION_DDOT>0</MEAN_MOTION_DDOT></tleParameters></data></segment></body></omm>
<omm id="CCSDS_OMM_VERS" version="2.0">
<header><CREATION_DATE/><ORIGINATOR/></header><body><segment><metadata><OBJECT_NAME>ORBCOMM FM111 [-]</OBJECT_NAME><OBJECT_ID>2014-040D</OBJECT_ID><CENTER_NAME>EARTH</CENTER_NAME><REF_FRAME>TEME</REF_FRAME><TIME_SYSTEM>UTC</TIME_SYSTEM><MEAN_ELEMENT_THEORY>SGP4</MEAN_ELEMENT_THEORY></metadata><data><meanElements><EPOCH>2024-04-02T22:24:07.833600</EPOCH><MEAN_MOTION>14.81443289</MEAN_MOTION><ECCENTRICITY>.0033638</ECCENTRICITY><INCLINATION>47.0047</INCLINATION><RA_OF_ASC_NODE>55.1846</RA_OF_ASC_NODE><ARG_OF_PERICENTER>252.1915</ARG_OF_PERICENTER><MEAN_ANOMALY>107.5309</MEAN_ANOMALY></meanElements><tleParameters><EPHEMERIS_TYPE>0</EPHEMERIS_TYPE><CLASSIFICATION_TYPE>U</CLASSIFICATION_TYPE><NORAD_CAT_ID>40089</NORAD_CAT_ID><ELEMENT_SET_NO>999</ELEMENT_SET_NO><REV_AT_EPOCH>52484</REV_AT_EPOCH><BSTAR>.37435E-3</BSTAR><MEAN_MOTION_DOT>.2781E-4</MEAN_MOTION_DOT><MEAN_MOTION_DDOT>0</MEAN_MOTION_DDOT></tleParameters></data></segment></body></omm>
<omm id="CCSDS_OMM_VERS" version="2.0">
<header><CREATION_DATE/><ORIGINATOR/></header><body><segment><metadata><OBJECT_NAME>ORBCOMM FM104 [-]</OBJECT_NAME><OBJECT_ID>2014-040E</OBJECT_ID><CENTER_NAME>EARTH</CENTER_NAME><REF_FRAME>TEME</REF_FRAME><TIME_SYSTEM>UTC</TIME_SYSTEM><MEAN_ELEMENT_THEORY>SGP4</MEAN_ELEMENT_THEORY></metadata><data><meanElements><EPOCH>2024-04-02T22:50:40.524288</EPOCH><MEAN_MOTION>14.54998397</MEAN_MOTION><ECCENTRICITY>.001708</ECCENTRICITY><INCLINATION>47.0061</INCLINATION><RA_OF_ASC_NODE>322.2627</RA_OF_ASC_NODE><ARG_OF_PERICENTER>353.2085</ARG_OF_PERICENTER><MEAN_ANOMALY>6.8565</MEAN_ANOMALY></meanElements><tleParameters><EPHEMERIS_TYPE>0</EPHEMERIS_TYPE><CLASSIFICATION_TYPE>U</CLASSIFICATION_TYPE><NORAD_CAT_ID>40090</NORAD_CAT_ID><ELEMENT_SET_NO>999</ELEMENT_SET_NO><REV_AT_EPOCH>51647</REV_AT_EPOCH><BSTAR>.23629E-3</BSTAR><MEAN_MOTION_DOT>.86E-5</MEAN_MOTION_DOT><MEAN_MOTION_DDOT>0</MEAN_MOTION_DDOT></tleParameters></data></segment></body></omm>

</ndm>
