ORBCOMM FM37 [-]        
1 33064U 08031E   24093.57763014  .00002205  00000+0  34516-3 0  9999
2 33064  48.4392 272.4908 0006269 285.5499 183.5145 14.76158198849193
ORBCOMM FM40 [-]        
1 33065U 08031F   24093.88600560  .00002673  00000+0  40021-3 0  9997
2 33065  48.4413 260.7624 0007557 295.3429 217.7606 14.77440652848951
VESSELSAT 1 [-]         
1 37840U 11058C   24093.74136070  .00000421  00000+0  85482-4 0  9990
2 37840  19.9615 238.5716 0013788  22.8984 337.2034 14.11132752644011
ORBCOMM FM109 [+]       
1 40086U 14040A   24093.91567452  .00000847  00000+0  22625-3 0  9992
2 40086  47.0038 292.9725 0001377 104.1910 255.9128 14.56441049516846
ORBCOMM FM107 [+]       
1 40087U 14040B   24093.67567969  .00000936  00000+0  24595-3 0  9996
2 40087  47.0051 295.0648 0000853  47.8605 312.2352 14.56444865516881
ORBCOMM FM106 [-]       
1 40088U 14040C   24093.86758540  .00001220  00000+0  24873-3 0  9991
2 40088  47.0591 150.0695 0017901 187.3424 172.7206 14.66817879518771
ORBCOMM FM111 [-]       
1 40089U 14040D   24093.93342400  .00002781  00000+0  37435-3 0  9995
2 40089  47.0047  55.1846 0033638 252.1915 107.5309 14.81443289524844
ORBCOMM FM104 [-]       
1 40090U 14040E   24093.95185792  .00000860  00000+0  23629-3 0  9994
2 40090  47.0061 322.2627 0017080 353.2085   6.8565 14.54998397516471
